[{"OBJECT_NAME":"UHETSAT","OBJECT_ID":"2023-185E","EPOCH":"2026-03-09T22:39:26.455680","MEAN_MOTION":15.29797662,"ECCENTRICITY":0.00118435,"INCLINATION":97.3584,"RA_OF_ASC_NODE":137.3576,"ARG_OF_PERICENTER":307.7346,"MEAN_ANOMALY":52.2821,"EPHEMERIS_TYPE":0,"CLASSIFICATION_TYPE":"U","NORAD_CAT_ID":58466,"ELEMENT_SET_NO":999,"REV_AT_EPOCH":12611,"BSTAR":0.00030513019,"MEAN_MOTION_DOT":8.749e-5,"MEAN_MOTION_DDOT":0},{"OBJECT_NAME":"STARLINK-31799","OBJECT_ID":"2024-082X","EPOCH":"2026-03-09T03:47:01.832640","MEAN_MOTION":15.27580305,"ECCENTRICITY":7.961e-5,"INCLINATION":42.9989,"RA_OF_ASC_NODE":132.1385,"ARG_OF_PERICENTER":178.3578,"MEAN_ANOMALY":181.7277,"EPHEMERIS_TYPE":0,"CLASSIFICATION_TYPE":"U","NORAD_CAT_ID":59652,"ELEMENT_SET_NO":999,"REV_AT_EPOCH":10490,"BSTAR":-7.0326657e-5,"MEAN_MOTION_DOT":-2.196e-5,"MEAN_MOTION_DDOT":0}]
